[{"OBJECT_NAME":"KUIPER-00031","OBJECT_ID":"2025-088W","EPOCH":"2026-03-09T08:49:36.222240","MEAN_MOTION":14.83663511,"ECCENTRICITY":0.00020432,"INCLINATION":51.8994,"RA_OF_ASC_NODE":97.1214,"ARG_OF_PERICENTER":139.5452,"MEAN_ANOMALY":220.5664,"EPHEMERIS_TYPE":0,"CLASSIFICATION_TYPE":"U","NORAD_CAT_ID":63744,"ELEMENT_SET_NO":999,"REV_AT_EPOCH":4750,"BSTAR":0.00061482299,"MEAN_MOTION_DOT":4.901e-5,"MEAN_MOTION_DDOT":0},{"OBJECT_NAME":"SL-14 R\/B","OBJECT_ID":"1985-058B","EPOCH":"2026-03-09T17:05:08.172096","MEAN_MOTION":14.85781539,"ECCENTRICITY":0.00210646,"INCLINATION":82.5282,"RA_OF_ASC_NODE":154.9342,"ARG_OF_PERICENTER":138.8618,"MEAN_ANOMALY":221.4192,"EPHEMERIS_TYPE":0,"CLASSIFICATION_TYPE":"U","NORAD_CAT_ID":15890,"ELEMENT_SET_NO":999,"REV_AT_EPOCH":17646,"BSTAR":7.1757705e-5,"MEAN_MOTION_DOT":6.5e-6,"MEAN_MOTION_DDOT":0}]
